STARLINK-31432          
1 59932U 24106L   26181.56106353 -.00115744  00000+0 -42696-2 0  9990
2 59932  43.0022  55.2023 0001961 321.8269  38.2444 15.27523941117773
STARLINK-31853          
1 59933U 24106M   26180.96485676  .00006508  00000+0  24579-3 0  9998
2 59933  43.0022  58.4684 0000742 264.1361  95.9406 15.27582561117692
STARLINK-31971          
1 59934U 24106N   26180.99488438  .00001030  00000+0  46952-4 0  9996
2 59934  43.0008  55.0822 0001351 262.2924  97.7775 15.27581150117619
STARLINK-31962          
1 59936U 24106Q   26180.98671726  .00000818  00000+0  39232-4 0  9997
2 59936  43.0047  58.6305 0001294 271.4619  88.6085 15.27580441117691
STARLINK-31879          
1 59937U 24106R   26180.93161422  .00000256  00000+0  18819-4 0  9994
2 59937  43.0031  59.0745 0001553 264.0046  96.0628 15.27577340117733
STARLINK-31876          
1 59938U 24106S   26180.95716179  .00000693  00000+0  34712-4 0  9997
2 59938  43.0015  58.4113 0001362 279.3025  80.7673 15.27581724117700
STARLINK-31955          
1 59939U 24106T   26180.93660608  .00000073  00000+0  12198-4 0  9997
2 59939  42.9993  58.2457 0001518 268.0688  91.9990 15.27578028117738
STARLINK-31946          
1 59940U 24106U   26180.99314251  .00000480  00000+0  26981-4 0  9992
2 59940  43.0058  58.6790 0001279 270.9952  89.0754 15.27579673108326
STARLINK-31948          
1 59941U 24106V   26180.98718473  .00000465  00000+0  26413-4 0  9999
2 59941  43.0037  55.0714 0001385 279.9188  80.1507 15.27580288117736
STARLINK-31900          
1 59942U 24106W   26180.93917522  .00000212  00000+0  17222-4 0  9999
2 59942  43.0013  58.2759 0001355 267.6814  92.3883 15.27579494117696
STARLINK-31973          
1 59943U 24106X   26180.97900581  .00005004  00000+0  19121-3 0  9994
2 59943  43.0041  58.5779 0001222 288.4827  71.5892 15.27584407117690
STARLINK-31966          
1 59944U 24106Y   26180.97515516  .00000531  00000+0  28832-4 0  9995
2 59944  43.0062  58.5438 0001106 288.8438  71.2294 15.27578174117742
STARLINK-11145 [DTC]    
1 59945U 24107A   26180.95096132  .00000964  00000+0  12817-4 0  9999
2 59945  53.1575  58.1694 0000689  71.8127 288.2966 15.69698817119778
STARLINK-11113 [DTC]    
1 59947U 24107C   26180.95575341 -.00003975  00000+0 -27944-4 0  9999
2 59947  53.1576  57.4533 0000793  45.7436 314.3647 15.69729664119787
STARLINK-11123 [DTC]    
1 59948U 24107D   26180.94114746 -.00000168  00000+0  34686-5 0  9999
2 59948  53.1596  58.1037 0000762  81.5257 278.5848 15.69707778119834
STARLINK-11138 [DTC]    
1 59949U 24107E   26180.92152365  .00000460  00000+0  86550-5 0  9998
2 59949  53.1593  57.9693 0000862  90.8824 269.2293 15.69706609119834
STARLINK-11130 [DTC]    
1 59950U 24107F   26180.93624134  .00002214  00000+0  23135-4 0  9997
2 59950  53.1593  58.0668 0001000  98.6210 261.4921 15.69701712119775
STARLINK-11124 [DTC]    
1 59952U 24107H   26180.92642907  .00001278  00000+0  15403-4 0  9994
2 59952  53.1597  58.0048 0001028  83.3464 276.7671 15.69706417119841
STARLINK-11133 [DTC]    
1 59954U 24107K   26180.91171293  .00000331  00000+0  75849-5 0  9990
2 59954  53.1594  57.9057 0000731  80.1207 279.9893 15.69709009119771
STARLINK-11144 [DTC]    
1 59955U 24107L   26180.90680564 -.00000477  00000+0  91588-6 0  9997
2 59955  53.1590  57.8783 0000698 100.6320 259.4777 15.69709757119830
STARLINK-11134 [DTC]    
1 59956U 24107M   26180.90190306 -.00000264  00000+0  26731-5 0  9999
2 59956  53.1589  57.8432 0000807  89.4485 270.6625 15.69704043119704
STARLINK-11142 [DTC]    
1 59957U 24107N   26180.89699482 -.00000321  00000+0  22035-5 0  9994
2 59957  53.1596  57.8096 0000913  91.0613 269.0510 15.69710085119785
STARLINK-31995          
1 59958U 24107P   26181.48745906 -.00001376  00000+0 -29599-4 0  9997
2 59958  53.1602 261.0781 0001293  79.7207 280.3942 15.34388673115875
STARLINK-31989          
1 59959U 24107Q   26181.46431081  .00007120  00000+0  22168-3 0  9997
2 59959  53.1585 260.9384 0001110 103.5233 256.5893 15.34396442117073
STARLINK-31856          
1 59960U 24107R   26181.58827123  .00012024  00000+0  36634-3 0  9990
2 59960  53.1593 260.2873 0001370  86.5647 273.5512 15.34406746117095
STARLINK-31993          
1 59961U 24107S   26181.47274039 -.00003136  00000+0 -81752-4 0  9999
2 59961  53.1585 260.9907 0001127  70.8098 289.3027 15.34385362117016
STARLINK-31980          
1 59962U 24107T   26181.46010719  .00000492  00000+0  25715-4 0  9999
2 59962  53.1623 260.9058 0001323  83.0931 277.0222 15.34387903117077
STARLINK-31991          
1 59963U 24107U   26181.48534684 -.00003327  00000+0 -87363-4 0  9993
2 59963  53.1595 261.0643 0000942  74.2844 285.8263 15.34409366117079
STARLINK-31979          
1 59964U 24107V   26181.46641689 -.00000859  00000+0 -14312-4 0  9997
2 59964  53.1598 260.9443 0001041  89.6614 270.4508 15.34385768117021
STARLINK-31978          
1 60016U 24111A   26181.45999083 -.00000431  00000+0 -21332-5 0  9992
2 60016  53.1603 271.5079 0000941  80.4067 279.7040 15.31704365116207
