OBJECT_NAME,OBJECT_ID,EPOCH,MEAN_MOTION,ECCENTRICITY,INCLINATION,RA_OF_ASC_NODE,ARG_OF_PERICENTER,MEAN_ANOMALY,EPHEMERIS_TYPE,CLASSIFICATION_TYPE,NORAD_CAT_ID,ELEMENT_SET_NO,REV_AT_EPOCH,BSTAR,MEAN_MOTION_DOT,MEAN_MOTION_DDOT
STARLINK-31432,2024-106L,2026-06-30T13:27:55.888992,15.27523941,.00019619,43.0022,55.2023,321.8269,38.2444,0,U,59932,999,11777,-.42696426E-2,-.115744E-2,0
STARLINK-31853,2024-106M,2026-06-29T23:09:23.624064,15.27582561,.00007427,43.0022,58.4684,264.1361,95.9406,0,U,59933,999,11769,.24578521E-3,.6508E-4,0
STARLINK-31971,2024-106N,2026-06-29T23:52:38.010432,15.27581150,.0001351,43.0008,55.0822,262.2924,97.7775,0,U,59934,999,11761,.46951703E-4,.103E-4,0
STARLINK-31962,2024-106Q,2026-06-29T23:40:52.371264,15.27580441,.00012949,43.0047,58.6305,271.4619,88.6085,0,U,59936,999,11769,.39232363E-4,.818E-5,0
STARLINK-31879,2024-106R,2026-06-29T22:21:31.468608,15.27577340,.00015538,43.0031,59.0745,264.0046,96.0628,0,U,59937,999,11773,.18819064E-4,.256E-5,0
STARLINK-31876,2024-106S,2026-06-29T22:58:18.778656,15.27581724,.00013624,43.0015,58.4113,279.3025,80.7673,0,U,59938,999,11770,.34712229E-4,.693E-5,0
STARLINK-31955,2024-106T,2026-06-29T22:28:42.765312,15.27578028,.00015181,42.9993,58.2457,268.0688,91.9990,0,U,59939,999,11773,.1219755E-4,.73E-6,0
STARLINK-31946,2024-106U,2026-06-29T23:50:07.512864,15.27579673,.00012793,43.0058,58.6790,270.9952,89.0754,0,U,59940,999,10832,.269812E-4,.48E-5,0
STARLINK-31948,2024-106V,2026-06-29T23:41:32.760672,15.27580288,.00013854,43.0037,55.0714,279.9188,80.1507,0,U,59941,999,11773,.26413286E-4,.465E-5,0
STARLINK-31900,2024-106W,2026-06-29T22:32:24.739008,15.27579494,.00013558,43.0013,58.2759,267.6814,92.3883,0,U,59942,999,11769,.17222036E-4,.212E-5,0
STARLINK-31973,2024-106X,2026-06-29T23:29:46.101984,15.27584407,.00012227,43.0041,58.5779,288.4827,71.5892,0,U,59943,999,11769,.19121193E-3,.5004E-4,0
STARLINK-31966,2024-106Y,2026-06-29T23:24:13.405824,15.27578174,.00011066,43.0062,58.5438,288.8438,71.2294,0,U,59944,999,11774,.28832256E-4,.531E-5,0
STARLINK-11145 [DTC],2024-107A,2026-06-29T22:49:23.058048,15.69698817,.00006894,53.1575,58.1694,71.8127,288.2966,0,U,59945,999,11977,.12816893E-4,.964E-5,0
STARLINK-11113 [DTC],2024-107C,2026-06-29T22:56:17.094624,15.69729664,.00007933,53.1576,57.4533,45.7436,314.3647,0,U,59947,999,11978,-.2794391E-4,-.3975E-4,0
STARLINK-11123 [DTC],2024-107D,2026-06-29T22:35:15.140544,15.69707778,.00007621,53.1596,58.1037,81.5257,278.5848,0,U,59948,999,11983,.3468589E-5,-.168E-5,0
STARLINK-11138 [DTC],2024-107E,2026-06-29T22:06:59.643360,15.69706609,.0000862,53.1593,57.9693,90.8824,269.2293,0,U,59949,999,11983,.8654988E-5,.46E-5,0
STARLINK-11130 [DTC],2024-107F,2026-06-29T22:28:11.251776,15.69701712,.00010007,53.1593,58.0668,98.6210,261.4921,0,U,59950,999,11977,.23134507E-4,.2214E-4,0
STARLINK-11124 [DTC],2024-107H,2026-06-29T22:14:03.471648,15.69706417,.00010282,53.1597,58.0048,83.3464,276.7671,0,U,59952,999,11984,.15402857E-4,.1278E-4,0
STARLINK-11133 [DTC],2024-107K,2026-06-29T21:52:51.997152,15.69709009,.00007313,53.1594,57.9057,80.1207,279.9893,0,U,59954,999,11977,.7584901E-5,.331E-5,0
STARLINK-11144 [DTC],2024-107L,2026-06-29T21:45:48.007296,15.69709757,.00006987,53.1590,57.8783,100.6320,259.4777,0,U,59955,999,11983,.915883E-6,-.477E-5,0
STARLINK-11134 [DTC],2024-107M,2026-06-29T21:38:44.424384,15.69704043,.00008078,53.1589,57.8432,89.4485,270.6625,0,U,59956,999,11970,.2673105E-5,-.264E-5,0
STARLINK-11142 [DTC],2024-107N,2026-06-29T21:31:40.352448,15.69710085,.00009136,53.1596,57.8096,91.0613,269.0510,0,U,59957,999,11978,.2203547E-5,-.321E-5,0
STARLINK-31995,2024-107P,2026-06-30T11:41:56.462784,15.34388673,.00012931,53.1602,261.0781,79.7207,280.3942,0,U,59958,999,11587,-.29598958E-4,-.1376E-4,0
STARLINK-31989,2024-107Q,2026-06-30T11:08:36.453984,15.34396442,.000111,53.1585,260.9384,103.5233,256.5893,0,U,59959,999,11707,.22167781E-3,.712E-4,0
STARLINK-31856,2024-107R,2026-06-30T14:07:06.634272,15.34406746,.000137,53.1593,260.2873,86.5647,273.5512,0,U,59960,999,11709,.36633761E-3,.12024E-3,0
STARLINK-31993,2024-107S,2026-06-30T11:20:44.769696,15.34385362,.00011272,53.1585,260.9907,70.8098,289.3027,0,U,59961,999,11701,-.81751613E-4,-.3136E-4,0
STARLINK-31980,2024-107T,2026-06-30T11:02:33.261216,15.34387903,.00013237,53.1623,260.9058,83.0931,277.0222,0,U,59962,999,11707,.25715103E-4,.492E-5,0
STARLINK-31991,2024-107U,2026-06-30T11:38:53.966976,15.34409366,.00009429,53.1595,261.0643,74.2844,285.8263,0,U,59963,999,11707,-.87363107E-4,-.3327E-4,0
STARLINK-31979,2024-107V,2026-06-30T11:11:38.419296,15.34385768,.00010416,53.1598,260.9443,89.6614,270.4508,0,U,59964,999,11702,-.14312448E-4,-.859E-5,0
STARLINK-31978,2024-111A,2026-06-30T11:02:23.207712,15.31704365,.0000941,53.1603,271.5079,80.4067,279.7040,0,U,60016,999,11620,-.2133216E-5,-.431E-5,0
